[{"OBJECT_NAME":"STARLINK-4607","OBJECT_ID":"2022-107AS","EPOCH":"2026-03-09T19:31:32.796192","MEAN_MOTION":15.08838738,"ECCENTRICITY":9.715e-5,"INCLINATION":53.2166,"RA_OF_ASC_NODE":263.46,"ARG_OF_PERICENTER":82.9981,"MEAN_ANOMALY":277.1122,"EPHEMERIS_TYPE":0,"CLASSIFICATION_TYPE":"U","NORAD_CAT_ID":53740,"ELEMENT_SET_NO":999,"REV_AT_EPOCH":19461,"BSTAR":2.3754948e-5,"MEAN_MOTION_DOT":9.0e-7,"MEAN_MOTION_DDOT":0},{"OBJECT_NAME":"FENGYUN 1C DEB","OBJECT_ID":"1999-025EMJ","EPOCH":"2026-03-09T03:39:09.279936","MEAN_MOTION":15.01174269,"ECCENTRICITY":0.00472088,"INCLINATION":98.7318,"RA_OF_ASC_NODE":38.98,"ARG_OF_PERICENTER":180.721,"MEAN_ANOMALY":242.109,"EPHEMERIS_TYPE":0,"CLASSIFICATION_TYPE":"U","NORAD_CAT_ID":37717,"ELEMENT_SET_NO":999,"REV_AT_EPOCH":90691,"BSTAR":0.0034859906,"MEAN_MOTION_DOT":0.00045969,"MEAN_MOTION_DDOT":0}]
